<?xml version="1.0" encoding="UTF-8"?><kml xmlns="http://www.opengis.net/kml/2.2"><Document><name>Forest Lake Memorial Park Phase 1 cleaned network</name><Folder><name>00_SITE</name><Placemark><name>SITE|FL-LEG|BOUNDARY|Forest Lake Memorial Park</name><ExtendedData><Data name="id"><value>SITE-FL-LEG</value></Data><Data name="feature_type"><value>site</value></Data><Data name="name"><value>Forest Lake Memorial Park</value></Data><Data name="phase"><value>1</value></Data></ExtendedData><Polygon><outerBoundaryIs><LinearRing><coordinates>123.7403651377267,13.12782596874229,0 123.7406037367828,13.12784499525643,0 123.7407289142752,13.12788688507238,0 123.7408464011529,13.12789462764139,0 123.740991875098,13.12787949360306,0 123.7411041243411,13.12780317205446,0 123.7413319691318,13.1275506140704,0 123.7417583862641,13.12783968768569,0 123.7417441848813,13.12808293463575,0 123.742417875768,13.12840957824183,0 123.7424363708249,13.12906879532538,0 123.7394451801504,13.12934857493199,0 123.7396684819317,13.12801018088061,0 123.7403651377267,13.12782596874229,0</coordinates></LinearRing></outerBoundaryIs></Polygon></Placemark></Folder><Folder><name>01_GARDENS</name><Placemark><name>AREA|FL-LEG|RPG|Royal Palm Garden</name><ExtendedData><Data name="id"><value>AREA-FL-LEG-RPG</value></Data><Data name="feature_type"><value>area</value></Data><Data name="area_code"><value>RPG</value></Data><Data name="name"><value>Royal Palm Garden</value></Data><Data name="phase"><value>1</value></Data></ExtendedData><Polygon><outerBoundaryIs><LinearRing><coordinates>123.7405340513382,13.12820755063447,0 123.7405066612439,13.12816343642655,0 123.7404806711216,13.12813767776098,0 123.7404525209434,13.12811525342111,0 123.7404195603137,13.1280999225715,0 123.7403261297797,13.12807332741856,0 123.7403230036469,13.12805506298938,0 123.7403414812124,13.12804960326467,0 123.7404983315581,13.12807232970278,0 123.7406147024229,13.12807392695482,0 123.7407606331736,13.12806048921294,0 123.741036159797,13.12796452541898,0 123.7411429135648,13.1278967151451,0 123.7412141625103,13.1278809595824,0 123.7413123875126,13.12776945816947,0 123.7413414430044,13.12774956908757,0 123.7415185343968,13.12783305447281,0 123.7414976473856,13.12840058018856,0 123.7414705106534,13.12841822289885,0 123.7406339858848,13.12849744433313,0 123.7405340513382,13.12820755063447,0</coordinates></LinearRing></outerBoundaryIs></Polygon></Placemark><Placemark><name>AREA|FL-LEG|HPG|Hawaiian Palm Garden</name><ExtendedData><Data name="id"><value>AREA-FL-LEG-HPG</value></Data><Data name="feature_type"><value>area</value></Data><Data name="area_code"><value>HPG</value></Data><Data name="name"><value>Hawaiian Palm Garden</value></Data><Data name="phase"><value>1</value></Data></ExtendedData><Polygon><outerBoundaryIs><LinearRing><coordinates>123.7406121043902,13.12873334794429,0 123.7406412762299,13.12868766866198,0 123.7406562066809,13.12865137358145,0 123.7406665141622,13.12857789560582,0 123.7406698631599,13.12855482306406,0 123.7406945232056,13.12854830358827,0 123.7412478937839,13.12849912978002,0 123.7415008793705,13.12847132505726,0 123.7415041700287,13.12849750663191,0 123.7415096692245,13.12902640559171,0 123.74108839363,13.12906780110058,0 123.7408293370436,13.12909000950886,0 123.7406919013151,13.12909264770115,0 123.7406706013298,13.1290847847856,0 123.7406441417552,13.12907039246089,0 123.7406247145984,13.12904951525065,0 123.7406044681364,13.12901703816797,0 123.7405401489314,13.12882240980647,0 123.7406121043902,13.12873334794429,0</coordinates></LinearRing></outerBoundaryIs></Polygon></Placemark><Placemark><name>AREA|FL-LEG|DPG|Dates Palm Garden</name><ExtendedData><Data name="id"><value>AREA-FL-LEG-DPG</value></Data><Data name="feature_type"><value>area</value></Data><Data name="area_code"><value>DPG</value></Data><Data name="name"><value>Dates Palm Garden</value></Data><Data name="phase"><value>1</value></Data></ExtendedData><Polygon><outerBoundaryIs><LinearRing><coordinates>123.7398135678771,13.12850151092343,0 123.7397498144484,13.12850154906577,0 123.7397133365944,13.12847477736388,0 123.7396930646815,13.12838949138012,0 123.7397288214942,13.12836459529402,0 123.7398216251688,13.12831759389227,0 123.7400198362306,13.1282367966545,0 123.7401067638377,13.12821468399574,0 123.7401919434392,13.12818730562433,0 123.7402554922226,13.12817632170536,0 123.7402941730351,13.12815726357629,0 123.7403265845668,13.12812766645202,0 123.7403704721411,13.12813941732078,0 123.7404220079671,13.1281522471567,0 123.7404631202201,13.12819374379407,0 123.7404899213332,13.12823987551977,0 123.7405277495677,13.12836244204297,0 123.7405737992595,13.12849325396437,0 123.7406111922961,13.12862098644719,0 123.7405993113786,13.12865583994522,0 123.740576692005,13.12868794042411,0 123.7405209393491,13.12875850121638,0 123.7405000063252,13.12876589519994,0 123.7403169730559,13.12854362903269,0 123.7402063519015,13.12852939473058,0 123.7398135678771,13.12850151092343,0</coordinates></LinearRing></outerBoundaryIs></Polygon></Placemark><Placemark><name>AREA|FL-LEG|YPG|Yellow Palm Garden</name><ExtendedData><Data name="id"><value>AREA-FL-LEG-YPG</value></Data><Data name="feature_type"><value>area</value></Data><Data name="area_code"><value>YPG</value></Data><Data name="name"><value>Yellow Palm Garden</value></Data><Data name="phase"><value>1</value></Data></ExtendedData><Polygon><outerBoundaryIs><LinearRing><coordinates>123.7415689093597,13.12902139180967,0 123.7415525600624,13.12860433367676,0 123.7415616435514,13.12825715732427,0 123.7415614653796,13.12822846176834,0 123.7416006616914,13.12823833554374,0 123.7422543920873,13.12850944393344,0 123.7422746225039,13.12855377340774,0 123.7422846588012,13.12893205644994,0 123.742249964703,13.12894907134266,0 123.7421931102673,13.12895746120152,0 123.7415689093597,13.12902139180967,0</coordinates></LinearRing></outerBoundaryIs></Polygon></Placemark></Folder><Folder><name>04_ROADS</name><Placemark><name>ROAD|FL-LEG|E015|ROADWAY|FL-LEG|Main Roadway</name><ExtendedData><Data name="id"><value>E015</value></Data><Data name="feature_type"><value>map_edge</value></Data><Data name="edge_type"><value>road</value></Data><Data name="source_name"><value>ROADWAY|FL-LEG|Main Roadway</value></Data><Data name="from_node_id"><value>N004</value></Data><Data name="to_node_id"><value>N013</value></Data><Data name="phase"><value>1</value></Data></ExtendedData><LineString><tessellate>1</tessellate><coordinates>123.7397112870844,13.12801380647635,0 123.73977072649,13.12808280454901,0 123.7398454959677,13.12807027669366,0 123.740229109141,13.12794647249112,0 123.7402710293218,13.12799829758109,0 123.7402771917625,13.1280712789659,0 123.7402606332397,13.12813256949534,0 123.7400153387492,13.12820699852901,0 123.7396818071203,13.12835577396909,0 123.7396574387865,13.12839913422864,0 123.739706816544,13.12852110923973,0 123.7398023173485,13.12853685039488,0 123.7402621309934,13.12856995940548,0 123.7403985962141,13.12869665768937,0 123.7405005150963,13.12881540457152,0 123.7405633928761,13.12901679658876,0 123.7406128162871,13.12909026539858,0 123.7406755666294,13.12912496937015,0 123.7407826917707,13.12912944187823,0 123.7422068286358,13.12898337665594,0 123.7422904940647,13.1289662051758,0 123.7423228442603,13.12887177479097,0 123.7423012204792,13.12855986599199,0 123.742264729358,13.12847441843111,0 123.7415367039778,13.12818257919808,0 123.7415466706432,13.12786581449556,0 123.7415510151604,13.12772507351489,0 123.7414668924936,13.12776905249553,0 123.7413298282025,13.12770755396005,0 123.7412202239299,13.12781035503441,0 123.741040309575,13.12791854766088,0 123.7408784887237,13.12799195141249,0 123.740751883595,13.12802246539821,0 123.7406734063201,13.12803978961819,0 123.7405731342115,13.12804076787716,0 123.7404338806394,13.12803421332965,0 123.7402691560207,13.12799078864284,0</coordinates></LineString></Placemark><Placemark><name>ROAD|FL-LEG|E016|ROADWAY|FL-LEG|RW001|Inner Roadway</name><ExtendedData><Data name="id"><value>E016</value></Data><Data name="feature_type"><value>map_edge</value></Data><Data name="edge_type"><value>road</value></Data><Data name="source_name"><value>ROADWAY|FL-LEG|RW001|Inner Roadway</value></Data><Data name="from_node_id"><value>N007</value></Data><Data name="to_node_id"><value>N008</value></Data><Data name="phase"><value>1</value></Data></ExtendedData><LineString><tessellate>1</tessellate><coordinates>123.7402763318098,13.12808780714987,0 123.7404266949776,13.12812742967773,0 123.7405026232816,13.12819961248963,0 123.7405980193756,13.12848306702616,0 123.7406225454643,13.12853093319916,0 123.7406345129928,13.12858201686928,0 123.7406338038292,13.12864241376396,0 123.7405850488708,13.12872714075295,0 123.7405027920662,13.12881115440598,0</coordinates></LineString></Placemark><Placemark><name>ROAD|FL-LEG|E017|ROADWAY|FL-LEG|RW0002|Inner Roadway</name><ExtendedData><Data name="id"><value>E017</value></Data><Data name="feature_type"><value>map_edge</value></Data><Data name="edge_type"><value>road</value></Data><Data name="source_name"><value>ROADWAY|FL-LEG|RW0002|Inner Roadway</value></Data><Data name="from_node_id"><value>N001</value></Data><Data name="to_node_id"><value>N002</value></Data><Data name="phase"><value>1</value></Data></ExtendedData><LineString><tessellate>1</tessellate><coordinates>123.7406288426815,13.12853092014226,0 123.7408463128015,13.12850621571828,0 123.7415269139454,13.12843619608978,0</coordinates></LineString></Placemark><Placemark><name>ROAD|FL-LEG|E018|ROADWAY|FL-LEG|RW0003|Inner Roadway</name><ExtendedData><Data name="id"><value>E018</value></Data><Data name="feature_type"><value>map_edge</value></Data><Data name="edge_type"><value>road</value></Data><Data name="source_name"><value>ROADWAY|FL-LEG|RW0003|Inner Roadway</value></Data><Data name="from_node_id"><value>N006</value></Data><Data name="to_node_id"><value>N009</value></Data><Data name="phase"><value>1</value></Data></ExtendedData><LineString><tessellate>1</tessellate><coordinates>123.7415363550128,13.12818999489939,0 123.7415311191783,13.1284408016469,0 123.7415297304188,13.12862941754102,0 123.7415320054693,13.12879103829396,0 123.7415393276134,13.12903366393575,0</coordinates></LineString></Placemark></Folder><Folder><name>05_WALKWAYS</name><Placemark><name>PATH|FL-LEG|E001|PATH|FL-LEG|W003|RPG Main</name><ExtendedData><Data name="id"><value>E001</value></Data><Data name="feature_type"><value>map_edge</value></Data><Data name="edge_type"><value>path</value></Data><Data name="source_name"><value>PATH|FL-LEG|W003|RPG Main</value></Data><Data name="from_node_id"><value>N015</value></Data><Data name="to_node_id"><value>N016</value></Data><Data name="phase"><value>1</value></Data></ExtendedData><LineString><tessellate>1</tessellate><coordinates>123.7411038120985,13.12845638635186,0 123.7410913777065,13.12827804533663,0</coordinates></LineString></Placemark><Placemark><name>PATH|FL-LEG|E002|PATH|FL-LEG|W001|RPG</name><ExtendedData><Data name="id"><value>E002</value></Data><Data name="feature_type"><value>map_edge</value></Data><Data name="edge_type"><value>path</value></Data><Data name="source_name"><value>PATH|FL-LEG|W001|RPG</value></Data><Data name="from_node_id"><value>N017</value></Data><Data name="to_node_id"><value>N018</value></Data><Data name="phase"><value>1</value></Data></ExtendedData><LineString><tessellate>1</tessellate><coordinates>123.7407437563408,13.12848669992525,0 123.7406766861297,13.12826377575012,0 123.7406191701803,13.12806895323293,0</coordinates></LineString></Placemark><Placemark><name>PATH|FL-LEG|E003|PATH|FL-LEG|W002|RPG</name><ExtendedData><Data name="id"><value>E003</value></Data><Data name="feature_type"><value>map_edge</value></Data><Data name="edge_type"><value>path</value></Data><Data name="source_name"><value>PATH|FL-LEG|W002|RPG</value></Data><Data name="from_node_id"><value>N014</value></Data><Data name="to_node_id"><value>N019</value></Data><Data name="phase"><value>1</value></Data></ExtendedData><LineString><tessellate>1</tessellate><coordinates>123.7406758046639,13.12826288278134,0 123.7410586019583,13.12824302766891,0</coordinates></LineString></Placemark><Placemark><name>PATH|FL-LEG|E004|PATH|FL-LEG|W004|RPG</name><ExtendedData><Data name="id"><value>E004</value></Data><Data name="feature_type"><value>map_edge</value></Data><Data name="edge_type"><value>path</value></Data><Data name="source_name"><value>PATH|FL-LEG|W004|RPG</value></Data><Data name="from_node_id"><value>N020</value></Data><Data name="to_node_id"><value>N021</value></Data><Data name="phase"><value>1</value></Data></ExtendedData><LineString><tessellate>1</tessellate><coordinates>123.7410829816531,13.12820458724272,0 123.7410678839943,13.12801068950536,0 123.7410851564649,13.12799518223994,0 123.7410807209723,13.12797308966474,0 123.7410911492804,13.12795888981274,0 123.7411051009502,13.12795341293118,0 123.7411036713225,13.12794129821973,0</coordinates></LineString></Placemark><Placemark><name>PATH|FL-LEG|E005|PATH|FL-LEG|W005|RPG</name><ExtendedData><Data name="id"><value>E005</value></Data><Data name="feature_type"><value>map_edge</value></Data><Data name="edge_type"><value>path</value></Data><Data name="source_name"><value>PATH|FL-LEG|W005|RPG</value></Data><Data name="from_node_id"><value>N022</value></Data><Data name="to_node_id"><value>N023</value></Data><Data name="phase"><value>1</value></Data></ExtendedData><LineString><tessellate>1</tessellate><coordinates>123.7411210258106,13.12823370366797,0 123.7412184214383,13.12822663773535,0 123.7413150867108,13.12821880609869,0 123.7414128768224,13.12820538204031,0 123.7415097127076,13.12819138231603,0</coordinates></LineString></Placemark><Placemark><name>PATH|FL-LEG|E006|PATH|FL-LEG|W001|HPG</name><ExtendedData><Data name="id"><value>E006</value></Data><Data name="feature_type"><value>map_edge</value></Data><Data name="edge_type"><value>path</value></Data><Data name="source_name"><value>PATH|FL-LEG|W001|HPG</value></Data><Data name="from_node_id"><value>N024</value></Data><Data name="to_node_id"><value>N025</value></Data><Data name="phase"><value>1</value></Data></ExtendedData><LineString><tessellate>1</tessellate><coordinates>123.7410296297591,13.12879412177239,0 123.7405567062705,13.12884564554591,0</coordinates></LineString></Placemark><Placemark><name>PATH|FL-LEG|E007|PATH|FL-LEG|W002|HPG</name><ExtendedData><Data name="id"><value>E007</value></Data><Data name="feature_type"><value>map_edge</value></Data><Data name="edge_type"><value>path</value></Data><Data name="source_name"><value>PATH|FL-LEG|W002|HPG</value></Data><Data name="from_node_id"><value>N026</value></Data><Data name="to_node_id"><value>N027</value></Data><Data name="phase"><value>1</value></Data></ExtendedData><LineString><tessellate>1</tessellate><coordinates>123.7410663920915,13.12883058569264,0 123.7410914578424,13.12906599056837,0</coordinates></LineString></Placemark><Placemark><name>PATH|FL-LEG|E008|PATH|FL-LEG|W003|HPG</name><ExtendedData><Data name="id"><value>E008</value></Data><Data name="feature_type"><value>map_edge</value></Data><Data name="edge_type"><value>path</value></Data><Data name="source_name"><value>PATH|FL-LEG|W003|HPG</value></Data><Data name="from_node_id"><value>N028</value></Data><Data name="to_node_id"><value>N029</value></Data><Data name="phase"><value>1</value></Data></ExtendedData><LineString><tessellate>1</tessellate><coordinates>123.7410943889899,13.12878641535624,0 123.7415015811615,13.12873921939796,0</coordinates></LineString></Placemark><Placemark><name>PATH|FL-LEG|E009|PATH|FL-LEG|W004|HPG</name><ExtendedData><Data name="id"><value>E009</value></Data><Data name="feature_type"><value>map_edge</value></Data><Data name="edge_type"><value>path</value></Data><Data name="source_name"><value>PATH|FL-LEG|W004|HPG</value></Data><Data name="from_node_id"><value>N030</value></Data><Data name="to_node_id"><value>N031</value></Data><Data name="phase"><value>1</value></Data></ExtendedData><LineString><tessellate>1</tessellate><coordinates>123.7410577506299,13.12876742989936,0 123.7410319420409,13.12852876866479,0</coordinates></LineString></Placemark><Placemark><name>PATH|FL-LEG|E010|PATH|FL-LEG|W001|YPG</name><ExtendedData><Data name="id"><value>E010</value></Data><Data name="feature_type"><value>map_edge</value></Data><Data name="edge_type"><value>path</value></Data><Data name="source_name"><value>PATH|FL-LEG|W001|YPG</value></Data><Data name="from_node_id"><value>N032</value></Data><Data name="to_node_id"><value>N033</value></Data><Data name="phase"><value>1</value></Data></ExtendedData><LineString><tessellate>1</tessellate><coordinates>123.741573835457,13.12893220839772,0 123.7422755173042,13.12886425340776,0</coordinates></LineString></Placemark><Placemark><name>PATH|FL-LEG|E011|PATH|FL-LEG|W002|YPG</name><ExtendedData><Data name="id"><value>E011</value></Data><Data name="feature_type"><value>map_edge</value></Data><Data name="edge_type"><value>path</value></Data><Data name="source_name"><value>PATH|FL-LEG|W002|YPG</value></Data><Data name="from_node_id"><value>N034</value></Data><Data name="to_node_id"><value>N035</value></Data><Data name="phase"><value>1</value></Data></ExtendedData><LineString><tessellate>1</tessellate><coordinates>123.7419366147827,13.12866285650484,0 123.7419421506023,13.12889272218984,0</coordinates></LineString></Placemark><Placemark><name>PATH|FL-LEG|E012|PATH|FL-LEG|W003|YPG</name><ExtendedData><Data name="id"><value>E012</value></Data><Data name="feature_type"><value>map_edge</value></Data><Data name="edge_type"><value>path</value></Data><Data name="source_name"><value>PATH|FL-LEG|W003|YPG</value></Data><Data name="from_node_id"><value>N036</value></Data><Data name="to_node_id"><value>N037</value></Data><Data name="phase"><value>1</value></Data></ExtendedData><LineString><tessellate>1</tessellate><coordinates>123.7419104118998,13.12862527905005,0 123.7415561335953,13.12862919411653,0</coordinates></LineString></Placemark><Placemark><name>PATH|FL-LEG|E013|PATH|FL-LEG|W004|YPG</name><ExtendedData><Data name="id"><value>E013</value></Data><Data name="feature_type"><value>map_edge</value></Data><Data name="edge_type"><value>path</value></Data><Data name="source_name"><value>PATH|FL-LEG|W004|YPG</value></Data><Data name="from_node_id"><value>N038</value></Data><Data name="to_node_id"><value>N039</value></Data><Data name="phase"><value>1</value></Data></ExtendedData><LineString><tessellate>1</tessellate><coordinates>123.7419729722561,13.12862538973531,0 123.7422707228544,13.12862567178184,0</coordinates></LineString></Placemark><Placemark><name>PATH|FL-LEG|E014|PATH|FL-LEG|W005|YPG</name><ExtendedData><Data name="id"><value>E014</value></Data><Data name="feature_type"><value>map_edge</value></Data><Data name="edge_type"><value>path</value></Data><Data name="source_name"><value>PATH|FL-LEG|W005|YPG</value></Data><Data name="from_node_id"><value>N040</value></Data><Data name="to_node_id"><value>N041</value></Data><Data name="phase"><value>1</value></Data></ExtendedData><LineString><tessellate>1</tessellate><coordinates>123.7419382171864,13.12860247231768,0 123.741942596372,13.12838490674422,0</coordinates></LineString></Placemark></Folder><Folder><name>06_NODES</name><Placemark><name>NODE|FL-LEG|N001|rpg_junction|Royal Palm Junction</name><ExtendedData><Data name="id"><value>N001</value></Data><Data name="feature_type"><value>map_node</value></Data><Data name="node_type"><value>rpg_junction</value></Data><Data name="name"><value>Royal Palm Junction</value></Data><Data name="source_names"><value>NODE|FL-LEG|N001|RPG_JUNCTION|Royal Palm Junction; ROADWAY|FL-LEG|RW0002|Inner Roadway</value></Data><Data name="phase"><value>1</value></Data></ExtendedData><Point><coordinates>123.740628344391,13.12853063908331,0</coordinates></Point></Placemark><Placemark><name>NODE|FL-LEG|N002|rpg_junction|Royal Palm Junction</name><ExtendedData><Data name="id"><value>N002</value></Data><Data name="feature_type"><value>map_node</value></Data><Data name="node_type"><value>rpg_junction</value></Data><Data name="name"><value>Royal Palm Junction</value></Data><Data name="source_names"><value>NODE|FL-LEG|N003|RPG_JUNCTION|Royal Palm Junction; ROADWAY|FL-LEG|RW0002|Inner Roadway</value></Data><Data name="phase"><value>1</value></Data></ExtendedData><Point><coordinates>123.7415273207423,13.12843559705057,0</coordinates></Point></Placemark><Placemark><name>NODE|FL-LEG|N003|rpg_landmark|Royal Palm Landmark</name><ExtendedData><Data name="id"><value>N003</value></Data><Data name="feature_type"><value>map_node</value></Data><Data name="node_type"><value>rpg_landmark</value></Data><Data name="name"><value>Royal Palm Landmark</value></Data><Data name="source_names"><value>NODE|FL-LEG|N002|RPG_LANDMARK|Royal Palm Landmark</value></Data><Data name="phase"><value>1</value></Data></ExtendedData><Point><coordinates>123.7410898523541,13.12823832624933,0</coordinates></Point></Placemark><Placemark><name>NODE|FL-LEG|N004|main_entrance|Main Entrance</name><ExtendedData><Data name="id"><value>N004</value></Data><Data name="feature_type"><value>map_node</value></Data><Data name="node_type"><value>main_entrance</value></Data><Data name="name"><value>Main Entrance</value></Data><Data name="source_names"><value>NODE|FL-LEG|N001|MAIN_ENTRANCE|Main Entrance; ROADWAY|FL-LEG|Main Roadway</value></Data><Data name="phase"><value>1</value></Data></ExtendedData><Point><coordinates>123.739711436971,13.12801316723383,0</coordinates></Point></Placemark><Placemark><name>NODE|FL-LEG|N005|main_exit|Main Exit</name><ExtendedData><Data name="id"><value>N005</value></Data><Data name="feature_type"><value>map_node</value></Data><Data name="node_type"><value>main_exit</value></Data><Data name="name"><value>Main Exit</value></Data><Data name="source_names"><value>NODE|FL-LEG|N001|MAIN_EXIT|Main Exit</value></Data><Data name="phase"><value>1</value></Data></ExtendedData><Point><coordinates>123.7415512254145,13.12772432667477,0</coordinates></Point></Placemark><Placemark><name>NODE|FL-LEG|N006|rpg_junction|Royal Palm Junction</name><ExtendedData><Data name="id"><value>N006</value></Data><Data name="feature_type"><value>map_node</value></Data><Data name="node_type"><value>rpg_junction</value></Data><Data name="name"><value>Royal Palm Junction</value></Data><Data name="source_names"><value>NODE|FL-LEG|N004|RPG_JUNCTION|Royal Palm Junction; ROADWAY|FL-LEG|RW0003|Inner Roadway</value></Data><Data name="phase"><value>1</value></Data></ExtendedData><Point><coordinates>123.741536644377,13.12818940150263,0</coordinates></Point></Placemark><Placemark><name>NODE|FL-LEG|N007|rpg_junction|Royal Palm Junction</name><ExtendedData><Data name="id"><value>N007</value></Data><Data name="feature_type"><value>map_node</value></Data><Data name="node_type"><value>rpg_junction</value></Data><Data name="name"><value>Royal Palm Junction</value></Data><Data name="source_names"><value>NODE|FL-LEG|N005|RPG_JUNCTION|Royal Palm Junction; ROADWAY|FL-LEG|RW001|Inner Roadway</value></Data><Data name="phase"><value>1</value></Data></ExtendedData><Point><coordinates>123.7402766825385,13.12808698630982,0</coordinates></Point></Placemark><Placemark><name>NODE|FL-LEG|N008|dpg_junction|Dates Palm Junction</name><ExtendedData><Data name="id"><value>N008</value></Data><Data name="feature_type"><value>map_node</value></Data><Data name="node_type"><value>dpg_junction</value></Data><Data name="name"><value>Dates Palm Junction</value></Data><Data name="source_names"><value>NODE|FL-LEG|N007|DPG_JUNCTION|Dates Palm Junction; ROADWAY|FL-LEG|RW001|Inner Roadway</value></Data><Data name="phase"><value>1</value></Data></ExtendedData><Point><coordinates>123.740502504532,13.12881097525611,0</coordinates></Point></Placemark><Placemark><name>NODE|FL-LEG|N009|hpg_junction|Hawaiian Palm Junction</name><ExtendedData><Data name="id"><value>N009</value></Data><Data name="feature_type"><value>map_node</value></Data><Data name="node_type"><value>hpg_junction</value></Data><Data name="name"><value>Hawaiian Palm Junction</value></Data><Data name="source_names"><value>NODE|FL-LEG|N008|HPG_JUNCTION|Hawaiian Palm Junction; ROADWAY|FL-LEG|RW0003|Inner Roadway</value></Data><Data name="phase"><value>1</value></Data></ExtendedData><Point><coordinates>123.7415394842868,13.12903431284176,0</coordinates></Point></Placemark><Placemark><name>NODE|FL-LEG|N010|hpg_junction|Royal Palm Cross</name><ExtendedData><Data name="id"><value>N010</value></Data><Data name="feature_type"><value>map_node</value></Data><Data name="node_type"><value>hpg_junction</value></Data><Data name="name"><value>Royal Palm Cross</value></Data><Data name="source_names"><value>NODE|FL-LEG|N009|HPG_JUNCTION|Royal Palm Cross</value></Data><Data name="phase"><value>1</value></Data></ExtendedData><Point><coordinates>123.741119288143,13.12800019120587,0</coordinates></Point></Placemark><Placemark><name>NODE|FL-LEG|N011|dpg_junction|Hawaiian Palm Landmark</name><ExtendedData><Data name="id"><value>N011</value></Data><Data name="feature_type"><value>map_node</value></Data><Data name="node_type"><value>dpg_junction</value></Data><Data name="name"><value>Hawaiian Palm Landmark</value></Data><Data name="source_names"><value>NODE|FL-LEG|N010|DPG_JUNCTION|Hawaiian Palm Landmark</value></Data><Data name="phase"><value>1</value></Data></ExtendedData><Point><coordinates>123.741064521153,13.12879879596171,0</coordinates></Point></Placemark><Placemark><name>NODE|FL-LEG|N012|ypg_junction|Yellow Palm Landmark</name><ExtendedData><Data name="id"><value>N012</value></Data><Data name="feature_type"><value>map_node</value></Data><Data name="node_type"><value>ypg_junction</value></Data><Data name="name"><value>Yellow Palm Landmark</value></Data><Data name="source_names"><value>NODE|FL-LEG|N011|YPG_JUNCTION|Yellow Palm Landmark</value></Data><Data name="phase"><value>1</value></Data></ExtendedData><Point><coordinates>123.741939127178,13.12862518257746,0</coordinates></Point></Placemark><Placemark><name>NODE|FL-LEG|N013|rpg_junction|Royal Palm Junction</name><ExtendedData><Data name="id"><value>N013</value></Data><Data name="feature_type"><value>map_node</value></Data><Data name="node_type"><value>rpg_junction</value></Data><Data name="name"><value>Royal Palm Junction</value></Data><Data name="source_names"><value>NODE|FL-LEG|N012|RPG_JUNCTION|Royal Palm Junction; ROADWAY|FL-LEG|Main Roadway</value></Data><Data name="phase"><value>1</value></Data></ExtendedData><Point><coordinates>123.7402688445091,13.12799022125917,0</coordinates></Point></Placemark><Placemark><name>NODE|FL-LEG|N014|junction|Derived junction 014</name><ExtendedData><Data name="id"><value>N014</value></Data><Data name="feature_type"><value>map_node</value></Data><Data name="node_type"><value>junction</value></Data><Data name="name"><value>Derived junction 014</value></Data><Data name="source_names"><value>PATH|FL-LEG|W001|RPG; PATH|FL-LEG|W002|RPG</value></Data><Data name="phase"><value>1</value></Data></ExtendedData><Point><coordinates>123.74067641318726,13.12826285121816,0</coordinates></Point></Placemark><Placemark><name>NODE|FL-LEG|N015|edge_endpoint|Derived edge endpoint</name><ExtendedData><Data name="id"><value>N015</value></Data><Data name="feature_type"><value>map_node</value></Data><Data name="node_type"><value>edge_endpoint</value></Data><Data name="name"><value>Derived edge endpoint</value></Data><Data name="source_names"><value>PATH|FL-LEG|W003|RPG Main</value></Data><Data name="phase"><value>1</value></Data></ExtendedData><Point><coordinates>123.7411038120985,13.12845638635186,0</coordinates></Point></Placemark><Placemark><name>NODE|FL-LEG|N016|edge_endpoint|Derived edge endpoint</name><ExtendedData><Data name="id"><value>N016</value></Data><Data name="feature_type"><value>map_node</value></Data><Data name="node_type"><value>edge_endpoint</value></Data><Data name="name"><value>Derived edge endpoint</value></Data><Data name="source_names"><value>PATH|FL-LEG|W003|RPG Main</value></Data><Data name="phase"><value>1</value></Data></ExtendedData><Point><coordinates>123.7410913777065,13.12827804533663,0</coordinates></Point></Placemark><Placemark><name>NODE|FL-LEG|N017|edge_endpoint|Derived edge endpoint</name><ExtendedData><Data name="id"><value>N017</value></Data><Data name="feature_type"><value>map_node</value></Data><Data name="node_type"><value>edge_endpoint</value></Data><Data name="name"><value>Derived edge endpoint</value></Data><Data name="source_names"><value>PATH|FL-LEG|W001|RPG</value></Data><Data name="phase"><value>1</value></Data></ExtendedData><Point><coordinates>123.7407437563408,13.12848669992525,0</coordinates></Point></Placemark><Placemark><name>NODE|FL-LEG|N018|edge_endpoint|Derived edge endpoint</name><ExtendedData><Data name="id"><value>N018</value></Data><Data name="feature_type"><value>map_node</value></Data><Data name="node_type"><value>edge_endpoint</value></Data><Data name="name"><value>Derived edge endpoint</value></Data><Data name="source_names"><value>PATH|FL-LEG|W001|RPG</value></Data><Data name="phase"><value>1</value></Data></ExtendedData><Point><coordinates>123.7406191701803,13.12806895323293,0</coordinates></Point></Placemark><Placemark><name>NODE|FL-LEG|N019|edge_endpoint|Derived edge endpoint</name><ExtendedData><Data name="id"><value>N019</value></Data><Data name="feature_type"><value>map_node</value></Data><Data name="node_type"><value>edge_endpoint</value></Data><Data name="name"><value>Derived edge endpoint</value></Data><Data name="source_names"><value>PATH|FL-LEG|W002|RPG</value></Data><Data name="phase"><value>1</value></Data></ExtendedData><Point><coordinates>123.7410586019583,13.12824302766891,0</coordinates></Point></Placemark><Placemark><name>NODE|FL-LEG|N020|edge_endpoint|Derived edge endpoint</name><ExtendedData><Data name="id"><value>N020</value></Data><Data name="feature_type"><value>map_node</value></Data><Data name="node_type"><value>edge_endpoint</value></Data><Data name="name"><value>Derived edge endpoint</value></Data><Data name="source_names"><value>PATH|FL-LEG|W004|RPG</value></Data><Data name="phase"><value>1</value></Data></ExtendedData><Point><coordinates>123.7410829816531,13.12820458724272,0</coordinates></Point></Placemark><Placemark><name>NODE|FL-LEG|N021|edge_endpoint|Derived edge endpoint</name><ExtendedData><Data name="id"><value>N021</value></Data><Data name="feature_type"><value>map_node</value></Data><Data name="node_type"><value>edge_endpoint</value></Data><Data name="name"><value>Derived edge endpoint</value></Data><Data name="source_names"><value>PATH|FL-LEG|W004|RPG</value></Data><Data name="phase"><value>1</value></Data></ExtendedData><Point><coordinates>123.7411036713225,13.12794129821973,0</coordinates></Point></Placemark><Placemark><name>NODE|FL-LEG|N022|edge_endpoint|Derived edge endpoint</name><ExtendedData><Data name="id"><value>N022</value></Data><Data name="feature_type"><value>map_node</value></Data><Data name="node_type"><value>edge_endpoint</value></Data><Data name="name"><value>Derived edge endpoint</value></Data><Data name="source_names"><value>PATH|FL-LEG|W005|RPG</value></Data><Data name="phase"><value>1</value></Data></ExtendedData><Point><coordinates>123.7411210258106,13.12823370366797,0</coordinates></Point></Placemark><Placemark><name>NODE|FL-LEG|N023|edge_endpoint|Derived edge endpoint</name><ExtendedData><Data name="id"><value>N023</value></Data><Data name="feature_type"><value>map_node</value></Data><Data name="node_type"><value>edge_endpoint</value></Data><Data name="name"><value>Derived edge endpoint</value></Data><Data name="source_names"><value>PATH|FL-LEG|W005|RPG</value></Data><Data name="phase"><value>1</value></Data></ExtendedData><Point><coordinates>123.7415097127076,13.12819138231603,0</coordinates></Point></Placemark><Placemark><name>NODE|FL-LEG|N024|edge_endpoint|Derived edge endpoint</name><ExtendedData><Data name="id"><value>N024</value></Data><Data name="feature_type"><value>map_node</value></Data><Data name="node_type"><value>edge_endpoint</value></Data><Data name="name"><value>Derived edge endpoint</value></Data><Data name="source_names"><value>PATH|FL-LEG|W001|HPG</value></Data><Data name="phase"><value>1</value></Data></ExtendedData><Point><coordinates>123.7410296297591,13.12879412177239,0</coordinates></Point></Placemark><Placemark><name>NODE|FL-LEG|N025|edge_endpoint|Derived edge endpoint</name><ExtendedData><Data name="id"><value>N025</value></Data><Data name="feature_type"><value>map_node</value></Data><Data name="node_type"><value>edge_endpoint</value></Data><Data name="name"><value>Derived edge endpoint</value></Data><Data name="source_names"><value>PATH|FL-LEG|W001|HPG</value></Data><Data name="phase"><value>1</value></Data></ExtendedData><Point><coordinates>123.7405567062705,13.12884564554591,0</coordinates></Point></Placemark><Placemark><name>NODE|FL-LEG|N026|edge_endpoint|Derived edge endpoint</name><ExtendedData><Data name="id"><value>N026</value></Data><Data name="feature_type"><value>map_node</value></Data><Data name="node_type"><value>edge_endpoint</value></Data><Data name="name"><value>Derived edge endpoint</value></Data><Data name="source_names"><value>PATH|FL-LEG|W002|HPG</value></Data><Data name="phase"><value>1</value></Data></ExtendedData><Point><coordinates>123.7410663920915,13.12883058569264,0</coordinates></Point></Placemark><Placemark><name>NODE|FL-LEG|N027|edge_endpoint|Derived edge endpoint</name><ExtendedData><Data name="id"><value>N027</value></Data><Data name="feature_type"><value>map_node</value></Data><Data name="node_type"><value>edge_endpoint</value></Data><Data name="name"><value>Derived edge endpoint</value></Data><Data name="source_names"><value>PATH|FL-LEG|W002|HPG</value></Data><Data name="phase"><value>1</value></Data></ExtendedData><Point><coordinates>123.7410914578424,13.12906599056837,0</coordinates></Point></Placemark><Placemark><name>NODE|FL-LEG|N028|edge_endpoint|Derived edge endpoint</name><ExtendedData><Data name="id"><value>N028</value></Data><Data name="feature_type"><value>map_node</value></Data><Data name="node_type"><value>edge_endpoint</value></Data><Data name="name"><value>Derived edge endpoint</value></Data><Data name="source_names"><value>PATH|FL-LEG|W003|HPG</value></Data><Data name="phase"><value>1</value></Data></ExtendedData><Point><coordinates>123.7410943889899,13.12878641535624,0</coordinates></Point></Placemark><Placemark><name>NODE|FL-LEG|N029|edge_endpoint|Derived edge endpoint</name><ExtendedData><Data name="id"><value>N029</value></Data><Data name="feature_type"><value>map_node</value></Data><Data name="node_type"><value>edge_endpoint</value></Data><Data name="name"><value>Derived edge endpoint</value></Data><Data name="source_names"><value>PATH|FL-LEG|W003|HPG</value></Data><Data name="phase"><value>1</value></Data></ExtendedData><Point><coordinates>123.7415015811615,13.12873921939796,0</coordinates></Point></Placemark><Placemark><name>NODE|FL-LEG|N030|edge_endpoint|Derived edge endpoint</name><ExtendedData><Data name="id"><value>N030</value></Data><Data name="feature_type"><value>map_node</value></Data><Data name="node_type"><value>edge_endpoint</value></Data><Data name="name"><value>Derived edge endpoint</value></Data><Data name="source_names"><value>PATH|FL-LEG|W004|HPG</value></Data><Data name="phase"><value>1</value></Data></ExtendedData><Point><coordinates>123.7410577506299,13.12876742989936,0</coordinates></Point></Placemark><Placemark><name>NODE|FL-LEG|N031|edge_endpoint|Derived edge endpoint</name><ExtendedData><Data name="id"><value>N031</value></Data><Data name="feature_type"><value>map_node</value></Data><Data name="node_type"><value>edge_endpoint</value></Data><Data name="name"><value>Derived edge endpoint</value></Data><Data name="source_names"><value>PATH|FL-LEG|W004|HPG</value></Data><Data name="phase"><value>1</value></Data></ExtendedData><Point><coordinates>123.7410319420409,13.12852876866479,0</coordinates></Point></Placemark><Placemark><name>NODE|FL-LEG|N032|edge_endpoint|Derived edge endpoint</name><ExtendedData><Data name="id"><value>N032</value></Data><Data name="feature_type"><value>map_node</value></Data><Data name="node_type"><value>edge_endpoint</value></Data><Data name="name"><value>Derived edge endpoint</value></Data><Data name="source_names"><value>PATH|FL-LEG|W001|YPG</value></Data><Data name="phase"><value>1</value></Data></ExtendedData><Point><coordinates>123.741573835457,13.12893220839772,0</coordinates></Point></Placemark><Placemark><name>NODE|FL-LEG|N033|edge_endpoint|Derived edge endpoint</name><ExtendedData><Data name="id"><value>N033</value></Data><Data name="feature_type"><value>map_node</value></Data><Data name="node_type"><value>edge_endpoint</value></Data><Data name="name"><value>Derived edge endpoint</value></Data><Data name="source_names"><value>PATH|FL-LEG|W001|YPG</value></Data><Data name="phase"><value>1</value></Data></ExtendedData><Point><coordinates>123.7422755173042,13.12886425340776,0</coordinates></Point></Placemark><Placemark><name>NODE|FL-LEG|N034|edge_endpoint|Derived edge endpoint</name><ExtendedData><Data name="id"><value>N034</value></Data><Data name="feature_type"><value>map_node</value></Data><Data name="node_type"><value>edge_endpoint</value></Data><Data name="name"><value>Derived edge endpoint</value></Data><Data name="source_names"><value>PATH|FL-LEG|W002|YPG</value></Data><Data name="phase"><value>1</value></Data></ExtendedData><Point><coordinates>123.7419366147827,13.12866285650484,0</coordinates></Point></Placemark><Placemark><name>NODE|FL-LEG|N035|edge_endpoint|Derived edge endpoint</name><ExtendedData><Data name="id"><value>N035</value></Data><Data name="feature_type"><value>map_node</value></Data><Data name="node_type"><value>edge_endpoint</value></Data><Data name="name"><value>Derived edge endpoint</value></Data><Data name="source_names"><value>PATH|FL-LEG|W002|YPG</value></Data><Data name="phase"><value>1</value></Data></ExtendedData><Point><coordinates>123.7419421506023,13.12889272218984,0</coordinates></Point></Placemark><Placemark><name>NODE|FL-LEG|N036|edge_endpoint|Derived edge endpoint</name><ExtendedData><Data name="id"><value>N036</value></Data><Data name="feature_type"><value>map_node</value></Data><Data name="node_type"><value>edge_endpoint</value></Data><Data name="name"><value>Derived edge endpoint</value></Data><Data name="source_names"><value>PATH|FL-LEG|W003|YPG</value></Data><Data name="phase"><value>1</value></Data></ExtendedData><Point><coordinates>123.7419104118998,13.12862527905005,0</coordinates></Point></Placemark><Placemark><name>NODE|FL-LEG|N037|edge_endpoint|Derived edge endpoint</name><ExtendedData><Data name="id"><value>N037</value></Data><Data name="feature_type"><value>map_node</value></Data><Data name="node_type"><value>edge_endpoint</value></Data><Data name="name"><value>Derived edge endpoint</value></Data><Data name="source_names"><value>PATH|FL-LEG|W003|YPG</value></Data><Data name="phase"><value>1</value></Data></ExtendedData><Point><coordinates>123.7415561335953,13.12862919411653,0</coordinates></Point></Placemark><Placemark><name>NODE|FL-LEG|N038|edge_endpoint|Derived edge endpoint</name><ExtendedData><Data name="id"><value>N038</value></Data><Data name="feature_type"><value>map_node</value></Data><Data name="node_type"><value>edge_endpoint</value></Data><Data name="name"><value>Derived edge endpoint</value></Data><Data name="source_names"><value>PATH|FL-LEG|W004|YPG</value></Data><Data name="phase"><value>1</value></Data></ExtendedData><Point><coordinates>123.7419729722561,13.12862538973531,0</coordinates></Point></Placemark><Placemark><name>NODE|FL-LEG|N039|edge_endpoint|Derived edge endpoint</name><ExtendedData><Data name="id"><value>N039</value></Data><Data name="feature_type"><value>map_node</value></Data><Data name="node_type"><value>edge_endpoint</value></Data><Data name="name"><value>Derived edge endpoint</value></Data><Data name="source_names"><value>PATH|FL-LEG|W004|YPG</value></Data><Data name="phase"><value>1</value></Data></ExtendedData><Point><coordinates>123.7422707228544,13.12862567178184,0</coordinates></Point></Placemark><Placemark><name>NODE|FL-LEG|N040|edge_endpoint|Derived edge endpoint</name><ExtendedData><Data name="id"><value>N040</value></Data><Data name="feature_type"><value>map_node</value></Data><Data name="node_type"><value>edge_endpoint</value></Data><Data name="name"><value>Derived edge endpoint</value></Data><Data name="source_names"><value>PATH|FL-LEG|W005|YPG</value></Data><Data name="phase"><value>1</value></Data></ExtendedData><Point><coordinates>123.7419382171864,13.12860247231768,0</coordinates></Point></Placemark><Placemark><name>NODE|FL-LEG|N041|edge_endpoint|Derived edge endpoint</name><ExtendedData><Data name="id"><value>N041</value></Data><Data name="feature_type"><value>map_node</value></Data><Data name="node_type"><value>edge_endpoint</value></Data><Data name="name"><value>Derived edge endpoint</value></Data><Data name="source_names"><value>PATH|FL-LEG|W005|YPG</value></Data><Data name="phase"><value>1</value></Data></ExtendedData><Point><coordinates>123.741942596372,13.12838490674422,0</coordinates></Point></Placemark></Folder></Document></kml>
